[{"OBJECT_NAME":"CHECKMATE 3","OBJECT_ID":"2023-050H","EPOCH":"2026-03-09T16:47:21.387840","MEAN_MOTION":13.85138647,"ECCENTRICITY":0.0006819,"INCLINATION":81.0056,"RA_OF_ASC_NODE":166.8458,"ARG_OF_PERICENTER":211.4814,"MEAN_ANOMALY":148.5935,"EPHEMERIS_TYPE":0,"CLASSIFICATION_TYPE":"U","NORAD_CAT_ID":56169,"ELEMENT_SET_NO":999,"REV_AT_EPOCH":14834,"BSTAR":9.3224216e-5,"MEAN_MOTION_DOT":1.17e-6,"MEAN_MOTION_DDOT":0},{"OBJECT_NAME":"FENGYUN 1C DEB","OBJECT_ID":"1999-025CZX","EPOCH":"2026-02-25T01:10:51.709440","MEAN_MOTION":14.09972493,"ECCENTRICITY":0.01234681,"INCLINATION":98.4304,"RA_OF_ASC_NODE":334.3635,"ARG_OF_PERICENTER":163.1875,"MEAN_ANOMALY":197.3446,"EPHEMERIS_TYPE":0,"CLASSIFICATION_TYPE":"U","NORAD_CAT_ID":32411,"ELEMENT_SET_NO":999,"REV_AT_EPOCH":66861,"BSTAR":0.00035443988,"MEAN_MOTION_DOT":6.31e-6,"MEAN_MOTION_DDOT":0}]
